ALOS-4 (DAICHI-4)       
1 60182U 24123A   24216.87836329  .00004449  00000+0  60212-3 0  9994
2 60182  97.9223 312.8571 0001523 104.5087 255.6294 14.79476551  4998
